CCSDS_OMM_VERS = 2.0
CREATION_DATE  = 
ORIGINATOR     = 

OBJECT_NAME    = SHIJIAN-28 (SJ-28)
OBJECT_ID      = 2025-277A
CENTER_NAME    = EARTH
REF_FRAME      = TEME
TIME_SYSTEM    = UTC
MEAN_ELEMENT_THEORY = SGP/SGP4

EPOCH          = 2025-12-23T02:05:51.535392
MEAN_MOTION    = 1.00266411
ECCENTRICITY   = .00010297
INCLINATION    = 4.9933
RA_OF_ASC_NODE = 274.7942
ARG_OF_PERICENTER = 133.6218
MEAN_ANOMALY   = 191.7028

EPHEMERIS_TYPE = 0
CLASSIFICATION_TYPE = U
NORAD_CAT_ID   = 66549
ELEMENT_SET_NO = 999
REV_AT_EPOCH   = 38
BSTAR          = 0
MEAN_MOTION_DOT = -.336E-5
MEAN_MOTION_DDOT = 0

CCSDS_OMM_VERS = 2.0
CREATION_DATE  = 
ORIGINATOR     = 

OBJECT_NAME    = CZ-7A R/B
OBJECT_ID      = 2025-277B
CENTER_NAME    = EARTH
REF_FRAME      = TEME
TIME_SYSTEM    = UTC
MEAN_ELEMENT_THEORY = SGP/SGP4

EPOCH          = 2025-12-18T08:54:45.891072
MEAN_MOTION    = 2.88841840
ECCENTRICITY   = .6879086
INCLINATION    = 14.3533
RA_OF_ASC_NODE = 266.9093
ARG_OF_PERICENTER = 194.6822
MEAN_ANOMALY   = 125.1782

EPHEMERIS_TYPE = 0
CLASSIFICATION_TYPE = U
NORAD_CAT_ID   = 66550
ELEMENT_SET_NO = 999
REV_AT_EPOCH   = 50
BSTAR          = .30391E-2
MEAN_MOTION_DOT = .266328E-1
MEAN_MOTION_DDOT = .14058E-5

CCSDS_OMM_VERS = 2.0
CREATION_DATE  = 
ORIGINATOR     = 

OBJECT_NAME    = USA 568
OBJECT_ID      = 2024-134K
CENTER_NAME    = EARTH
REF_FRAME      = TEME
TIME_SYSTEM    = UTC
MEAN_ELEMENT_THEORY = SGP/SGP4

EPOCH          = 2025-12-02T16:00:03.000096
MEAN_MOTION    = 15.87051116
ECCENTRICITY   = .0000717
INCLINATION    = 53.1571
RA_OF_ASC_NODE = 236.7807
ARG_OF_PERICENTER = 110.7411
MEAN_ANOMALY   = 313.9012

EPHEMERIS_TYPE = 0
CLASSIFICATION_TYPE = U
NORAD_CAT_ID   = 66551
ELEMENT_SET_NO = 999
REV_AT_EPOCH   = 262
BSTAR          = -.74303E-2
MEAN_MOTION_DOT = -.1709685E-1
MEAN_MOTION_DDOT = 0

CCSDS_OMM_VERS = 2.0
CREATION_DATE  = 
ORIGINATOR     = 

OBJECT_NAME    = GLOBAL-33
OBJECT_ID      = 2025-267A
CENTER_NAME    = EARTH
REF_FRAME      = TEME
TIME_SYSTEM    = UTC
MEAN_ELEMENT_THEORY = SGP/SGP4

EPOCH          = 2025-12-23T05:27:35.304480
MEAN_MOTION    = 15.31694249
ECCENTRICITY   = .00043548
INCLINATION    = 42.0212
RA_OF_ASC_NODE = 356.4455
ARG_OF_PERICENTER = 164.9071
MEAN_ANOMALY   = 195.1897

EPHEMERIS_TYPE = 0
CLASSIFICATION_TYPE = U
NORAD_CAT_ID   = 66554
ELEMENT_SET_NO = 999
REV_AT_EPOCH   = 501
BSTAR          = .45045081E-3
MEAN_MOTION_DOT = .13861E-3
MEAN_MOTION_DDOT = 0

CCSDS_OMM_VERS = 2.0
CREATION_DATE  = 
ORIGINATOR     = 

OBJECT_NAME    = STARLINK-35699
OBJECT_ID      = 2025-268A
CENTER_NAME    = EARTH
REF_FRAME      = TEME
TIME_SYSTEM    = UTC
MEAN_ELEMENT_THEORY = SGP/SGP4

EPOCH          = 2025-12-23T00:00:00.998784
MEAN_MOTION    = 15.50173277
ECCENTRICITY   = .000101
INCLINATION    = 43.0003
RA_OF_ASC_NODE = 61.0844
ARG_OF_PERICENTER = 265.9648
MEAN_ANOMALY   = 341.0922

EPHEMERIS_TYPE = 0
CLASSIFICATION_TYPE = U
NORAD_CAT_ID   = 66557
ELEMENT_SET_NO = 999
REV_AT_EPOCH   = 610
BSTAR          = -.40042E-1
MEAN_MOTION_DOT = -.2060462E-1
MEAN_MOTION_DDOT = 0

CCSDS_OMM_VERS = 2.0
CREATION_DATE  = 
ORIGINATOR     = 

OBJECT_NAME    = STARLINK-35695
OBJECT_ID      = 2025-268B
CENTER_NAME    = EARTH
REF_FRAME      = TEME
TIME_SYSTEM    = UTC
MEAN_ELEMENT_THEORY = SGP/SGP4

EPOCH          = 2025-12-23T00:00:00.998784
MEAN_MOTION    = 15.51008751
ECCENTRICITY   = .0001098
INCLINATION    = 43.0007
RA_OF_ASC_NODE = 61.0710
ARG_OF_PERICENTER = 264.5548
MEAN_ANOMALY   = 348.3176

EPHEMERIS_TYPE = 0
CLASSIFICATION_TYPE = U
NORAD_CAT_ID   = 66558
ELEMENT_SET_NO = 999
REV_AT_EPOCH   = 610
BSTAR          = -.38708E-1
MEAN_MOTION_DOT = -.2053479E-1
MEAN_MOTION_DDOT = 0

CCSDS_OMM_VERS = 2.0
CREATION_DATE  = 
ORIGINATOR     = 

OBJECT_NAME    = STARLINK-35419
OBJECT_ID      = 2025-268C
CENTER_NAME    = EARTH
REF_FRAME      = TEME
TIME_SYSTEM    = UTC
MEAN_ELEMENT_THEORY = SGP/SGP4

EPOCH          = 2025-12-23T08:00:03.000384
MEAN_MOTION    = 15.54641365
ECCENTRICITY   = .00015577
INCLINATION    = 43.0002
RA_OF_ASC_NODE = 59.0758
ARG_OF_PERICENTER = 268.9816
MEAN_ANOMALY   = 66.3145

EPHEMERIS_TYPE = 0
CLASSIFICATION_TYPE = U
NORAD_CAT_ID   = 66559
ELEMENT_SET_NO = 999
REV_AT_EPOCH   = 610
BSTAR          = -.3441203E-1
MEAN_MOTION_DOT = -.2081697E-1
MEAN_MOTION_DDOT = 0

CCSDS_OMM_VERS = 2.0
CREATION_DATE  = 
ORIGINATOR     = 

OBJECT_NAME    = STARLINK-35411
OBJECT_ID      = 2025-268D
CENTER_NAME    = EARTH
REF_FRAME      = TEME
TIME_SYSTEM    = UTC
MEAN_ELEMENT_THEORY = SGP/SGP4

EPOCH          = 2025-12-23T08:00:03.000384
MEAN_MOTION    = 15.55210672
ECCENTRICITY   = .00014542
INCLINATION    = 43.0002
RA_OF_ASC_NODE = 59.0700
ARG_OF_PERICENTER = 269.1855
MEAN_ANOMALY   = 68.6381

EPHEMERIS_TYPE = 0
CLASSIFICATION_TYPE = U
NORAD_CAT_ID   = 66560
ELEMENT_SET_NO = 999
REV_AT_EPOCH   = 610
BSTAR          = -.34390662E-1
MEAN_MOTION_DOT = -.2119993E-1
MEAN_MOTION_DDOT = 0

CCSDS_OMM_VERS = 2.0
CREATION_DATE  = 
ORIGINATOR     = 

OBJECT_NAME    = STARLINK-35305
OBJECT_ID      = 2025-268E
CENTER_NAME    = EARTH
REF_FRAME      = TEME
TIME_SYSTEM    = UTC
MEAN_ELEMENT_THEORY = SGP/SGP4

EPOCH          = 2025-12-23T08:00:03.000384
MEAN_MOTION    = 15.56789258
ECCENTRICITY   = .00016542
INCLINATION    = 43.0000
RA_OF_ASC_NODE = 59.0591
ARG_OF_PERICENTER = 273.1074
MEAN_ANOMALY   = 69.1416

EPHEMERIS_TYPE = 0
CLASSIFICATION_TYPE = U
NORAD_CAT_ID   = 66561
ELEMENT_SET_NO = 999
REV_AT_EPOCH   = 610
BSTAR          = -.30227086E-1
MEAN_MOTION_DOT = -.1955788E-1
MEAN_MOTION_DDOT = 0

CCSDS_OMM_VERS = 2.0
CREATION_DATE  = 
ORIGINATOR     = 

OBJECT_NAME    = STARLINK-35579
OBJECT_ID      = 2025-268F
CENTER_NAME    = EARTH
REF_FRAME      = TEME
TIME_SYSTEM    = UTC
MEAN_ELEMENT_THEORY = SGP/SGP4

EPOCH          = 2025-12-23T08:00:03.000384
MEAN_MOTION    = 15.56048823
ECCENTRICITY   = .00013878
INCLINATION    = 43.0002
RA_OF_ASC_NODE = 59.0636
ARG_OF_PERICENTER = 268.7966
MEAN_ANOMALY   = 71.5020

EPHEMERIS_TYPE = 0
CLASSIFICATION_TYPE = U
NORAD_CAT_ID   = 66562
ELEMENT_SET_NO = 999
REV_AT_EPOCH   = 610
BSTAR          = -.33427043E-1
MEAN_MOTION_DOT = -.2125413E-1
MEAN_MOTION_DDOT = 0

CCSDS_OMM_VERS = 2.0
CREATION_DATE  = 
ORIGINATOR     = 

OBJECT_NAME    = STARLINK-35437
OBJECT_ID      = 2025-268G
CENTER_NAME    = EARTH
REF_FRAME      = TEME
TIME_SYSTEM    = UTC
MEAN_ELEMENT_THEORY = SGP/SGP4

EPOCH          = 2025-12-23T08:00:03.000384
MEAN_MOTION    = 15.56719328
ECCENTRICITY   = .00017223
INCLINATION    = 43.0005
RA_OF_ASC_NODE = 59.0536
ARG_OF_PERICENTER = 273.1393
MEAN_ANOMALY   = 71.0120

EPHEMERIS_TYPE = 0
CLASSIFICATION_TYPE = U
NORAD_CAT_ID   = 66563
ELEMENT_SET_NO = 999
REV_AT_EPOCH   = 610
BSTAR          = -.12472156E-1
MEAN_MOTION_DOT = -.838014E-2
MEAN_MOTION_DDOT = 0

CCSDS_OMM_VERS = 2.0
CREATION_DATE  = 
ORIGINATOR     = 

OBJECT_NAME    = STARLINK-35358
OBJECT_ID      = 2025-268H
CENTER_NAME    = EARTH
REF_FRAME      = TEME
TIME_SYSTEM    = UTC
MEAN_ELEMENT_THEORY = SGP/SGP4

EPOCH          = 2025-12-23T08:00:03.000384
MEAN_MOTION    = 15.56449360
ECCENTRICITY   = .00014697
INCLINATION    = 43.0001
RA_OF_ASC_NODE = 59.0490
ARG_OF_PERICENTER = 272.1212
MEAN_ANOMALY   = 73.9952

EPHEMERIS_TYPE = 0
CLASSIFICATION_TYPE = U
NORAD_CAT_ID   = 66564
ELEMENT_SET_NO = 999
REV_AT_EPOCH   = 610
BSTAR          = -.84110116E-3
MEAN_MOTION_DOT = -.61005E-3
MEAN_MOTION_DDOT = 0

