SHIJIAN-28 (SJ-28)      
1 66549U 25277A   25357.08740203 -.00000336  00000+0  00000+0 0  9990
2 66549   4.9933 274.7942 0001029 133.6218 191.7028  1.00266411   381
CZ-7A R/B               
1 66550U 25277B   25352.37136448  .02663280  14058-5  30391-2 0  9996
2 66550  14.3533 266.9093 6879086 194.6822 125.1782  2.88841840   508
USA 568                 
1 66551U 24134K   25336.66670139 -.01709685  00000+0 -74303-2 0  9990
2 66551  53.1571 236.7807 0000717 110.7411 313.9012 15.87051116  2624
GLOBAL-33               
1 66554U 25267A   25357.22749195  .00013861  00000+0  45045-3 0  9998
2 66554  42.0212 356.4455 0004354 164.9071 195.1897 15.31694249  5015
STARLINK-35699          
1 66557U 25268A   25357.00001156 -.02060462  00000+0 -40042-1 0  9999
2 66557  43.0003  61.0844 0001010 265.9648 341.0922 15.50173277  6102
STARLINK-35695          
1 66558U 25268B   25357.00001156 -.02053479  00000+0 -38708-1 0  9996
2 66558  43.0007  61.0710 0001098 264.5548 348.3176 15.51008751  6105
STARLINK-35419          
1 66559U 25268C   25357.33336806 -.02081697  00000+0 -34412-1 0  9997
2 66559  43.0002  59.0758 0001557 268.9816  66.3145 15.54641365  6106
STARLINK-35411          
1 66560U 25268D   25357.33336806 -.02119993  00000+0 -34391-1 0  9996
2 66560  43.0002  59.0700 0001454 269.1855  68.6381 15.55210672  6108
STARLINK-35305          
1 66561U 25268E   25357.33336806 -.01955788  00000+0 -30227-1 0  9990
2 66561  43.0000  59.0591 0001654 273.1074  69.1416 15.56789258  6102
STARLINK-35579          
1 66562U 25268F   25357.33336806 -.02125413  00000+0 -33427-1 0  9991
2 66562  43.0002  59.0636 0001387 268.7966  71.5020 15.56048823  6102
STARLINK-35437          
1 66563U 25268G   25357.33336806 -.00838014  00000+0 -12472-1 0  9995
2 66563  43.0005  59.0536 0001722 273.1393  71.0120 15.56719328  6103
STARLINK-35358          
1 66564U 25268H   25357.33336806 -.00061005  00000+0 -84110-3 0  9994
2 66564  43.0001  59.0490 0001469 272.1212  73.9952 15.56449360  6106
